[
  {
    "OBJECT_NAME": "GPS BIIF-8  (PRN 03)",
    "OBJECT_ID": "2014-068A",
    "EPOCH": "2026-06-01T23:12:11.987424",
    "MEAN_MOTION": 2.00563205,
    "ECCENTRICITY": 0.0027421,
    "INCLINATION": 54.9783,
    "RA_OF_ASC_NODE": 191.2374,
    "ARG_OF_PERICENTER": 47.1928,
    "MEAN_ANOMALY": 313.4471,
    "EPHEMERIS_TYPE": 0,
    "CLASSIFICATION_TYPE": "U",
    "NORAD_CAT_ID": 40294,
    "ELEMENT_SET_NO": 999,
    "REV_AT_EPOCH": 8421,
    "BSTAR": 0.0,
    "MEAN_MOTION_DOT": 1.2e-7,
    "MEAN_MOTION_DDOT": 0.0
  },
  {
    "OBJECT_NAME": "GPS BIIRM-8 (PRN 05)",
    "OBJECT_ID": "2009-043A",
    "EPOCH": "2026-06-03T09:46:38.739648",
    "MEAN_MOTION": 2.00561899,
    "ECCENTRICITY": 0.0054783,
    "INCLINATION": 55.1402,
    "RA_OF_ASC_NODE": 132.0918,
    "ARG_OF_PERICENTER": 58.7741,
    "MEAN_ANOMALY": 301.9933,
    "EPHEMERIS_TYPE": 0,
    "CLASSIFICATION_TYPE": "U",
    "NORAD_CAT_ID": 35752,
    "ELEMENT_SET_NO": 999,
    "REV_AT_EPOCH": 12503,
    "BSTAR": 0.0,
    "MEAN_MOTION_DOT": 1.0e-7,
    "MEAN_MOTION_DDOT": 0.0
  },
  {
    "OBJECT_NAME": "GPS BIII-10 (PRN 13)",
    "OBJECT_ID": "2026-087A",
    "EPOCH": "2026-06-03T13:25:51.221568",
    "MEAN_MOTION": 2.00565012,
    "ECCENTRICITY": 0.0009123,
    "INCLINATION": 54.8011,
    "RA_OF_ASC_NODE": 71.4452,
    "ARG_OF_PERICENTER": 39.0021,
    "MEAN_ANOMALY": 321.6677,
    "EPHEMERIS_TYPE": 0,
    "CLASSIFICATION_TYPE": "U",
    "NORAD_CAT_ID": 68791,
    "ELEMENT_SET_NO": 999,
    "REV_AT_EPOCH": 142,
    "BSTAR": 0.0,
    "MEAN_MOTION_DOT": 9.0e-8,
    "MEAN_MOTION_DDOT": 0.0
  },
  {
    "OBJECT_NAME": "GPS BIIR-11 (PRN 19)",
    "OBJECT_ID": "2004-009A",
    "EPOCH": "2026-06-03T10:31:54.628608",
    "MEAN_MOTION": 2.00560021,
    "ECCENTRICITY": 0.0151204,
    "INCLINATION": 55.4123,
    "RA_OF_ASC_NODE": 252.7781,
    "ARG_OF_PERICENTER": 231.5538,
    "MEAN_ANOMALY": 106.2245,
    "EPHEMERIS_TYPE": 0,
    "CLASSIFICATION_TYPE": "U",
    "NORAD_CAT_ID": 28190,
    "ELEMENT_SET_NO": 999,
    "REV_AT_EPOCH": 15820,
    "BSTAR": 0.0,
    "MEAN_MOTION_DOT": 1.1e-7,
    "MEAN_MOTION_DDOT": 0.0
  }
]
